MEAN_MOTION;ECCENTRICITY;INCLINATION;RA_OF_ASC_NODE;ARG_OF_PERICENTER;MEAN_ANOMALY;BSTAR;MEAN_MOTION_DOT;MEAN_MOTION_DDOT;TYPE
14.35868471;8.0E-5;86.3931;113.1373;53.1969;306.9301;3.3789E-5;1.18E-6;0;Iridium
14.35868466;7.95E-5;86.3931;113.108;53.2453;306.8817;3.2911E-5;1.15E-6;0;Iridium
14.3586866;7.19E-5;86.3929;112.6987;57.184;302.9426;3.5278E-5;1.22E-6;0;Iridium
14.35868739;6.77E-5;86.3928;112.4647;60.1669;299.9595;3.4109E-5;1.19E-6;0;Iridium
14.35868949;6.03E-5;86.3927;111.9092;69.6371;290.489;3.4395E-5;1.19E-6;0;Iridium
14.35868949;6.03E-5;86.3927;111.9092;69.6371;290.489;3.4395E-5;1.19E-6;0;Iridium
14.35868936;5.98E-5;86.3927;111.88;69.9255;290.2006;3.2733E-5;1.15E-6;0;Iridium
14.35869076;5.65E-5;86.3926;111.4707;78.4634;281.6626;3.0696E-5;1.09E-6;0;Iridium
14.35869076;5.65E-5;86.3926;111.4707;78.4634;281.6626;3.0696E-5;1.09E-6;0;Iridium
14.35869179;5.49E-5;86.3925;111.0614;87.416;272.71;2.744E-5;9.9E-7;0;Iridium
14.35869205;5.49E-5;86.3924;110.9444;89.7561;270.3699;2.5948E-5;9.5E-7;0;Iridium
14.35869363;5.54E-5;86.3923;110.6227;98.1976;261.9284;2.5878E-5;9.5E-7;0;Iridium
14.35869363;5.54E-5;86.3923;110.6227;98.1976;261.9284;2.5878E-5;9.5E-7;0;Iridium
14.35869403;5.53E-5;86.3922;110.5643;99.613;260.513;2.6293E-5;9.6E-7;0;Iridium
14.35869556;5.78E-5;86.3922;110.1841;107.9384;252.1876;2.4552E-5;9.1E-7;0;Iridium
14.35869741;6.15E-5;86.3921;109.7747;115.764;244.3621;2.4535E-5;9.1E-7;0;Iridium
14.3586991;6.63E-5;86.392;109.3652;122.3192;237.8069;2.5403E-5;9.3E-7;0;Iridium
14.3586991;6.64E-5;86.392;109.336;122.6127;237.5134;2.4733E-5;9.1E-7;0;Iridium
14.3586999;7.58E-5;86.392;108.9559;129.2102;230.9162;2.3235E-5;8.7E-7;0;Iridium
14.35870002;7.66E-5;86.3919;108.8388;129.0355;231.091;2.2362E-5;8.5E-7;0;Iridium
14.35870034;8.14E-5;86.3919;108.5463;131.9983;228.1284;1.9566E-5;7.6E-7;0;Iridium
14.35870022;8.19E-5;86.3918;108.5171;132.2194;227.9072;1.8193E-5;7.3E-7;0;Iridium
14.35870173;8.72E-5;86.3918;108.1077;134.4668;225.66;2.2246E-5;8.4E-7;0;Iridium
14.35870294;9.57E-5;86.3917;107.6982;136.5551;223.5722;2.4089E-5;9.0E-7;0;Iridium
14.35870307;9.68E-5;86.3917;107.669;136.717;223.4102;2.425E-5;9.0E-7;0;Iridium
14.35870458;0.0001058;86.3917;107.2598;138.3781;221.7496;2.6391E-5;9.6E-7;0;Iridium
14.35870669;0.0001158;86.3916;106.8504;139.6436;220.4846;3.0159E-5;1.07E-6;0;Iridium
14.35870754;0.0001196;86.3916;106.6749;139.6793;220.4492;3.1525E-5;1.11E-6;0;Iridium
14.35870863;0.0001248;86.3916;106.441;140.1297;219.9992;3.2281E-5;1.13E-6;0;Iridium
14.35870949;0.0001284;86.3915;106.2655;140.0312;220.0979;3.3106E-5;1.16E-6;0;Iridium
14.35871038;0.0001349;86.3915;106.0022;140.4092;219.7204;3.1396E-5;1.11E-6;0;Iridium
14.35871038;0.0001349;86.3915;106.0022;140.4092;219.7204;3.1396E-5;1.11E-6;0;Iridium
14.35871192;0.0001432;86.3915;105.622;140.4954;219.6347;3.0684E-5;1.09E-6;0;Iridium
14.35871285;0.0001474;86.3915;105.4173;140.284;219.8465;3.0072E-5;1.07E-6;0;Iridium
14.35871319;0.0001519;86.3915;105.1833;140.1298;220.0011;2.6978E-5;9.8E-7;0;Iridium
14.35871383;0.0001565;86.3915;105.0079;139.9897;220.1415;2.6285E-5;9.6E-7;0;Iridium
14.35871448;0.000162;86.3915;104.7739;139.7603;220.3714;2.4358E-5;9.0E-7;0;Iridium
14.35871453;0.000163;86.3915;104.7446;139.7558;220.376;2.3812E-5;8.9E-7;0;Iridium
14.35871625;0.0001722;86.3915;104.3352;139.2772;220.8554;2.3433E-5;8.8E-7;0;Iridium
14.35871625;0.0001722;86.3915;104.3352;139.2772;220.8554;2.3433E-5;8.8E-7;0;Iridium
14.35871707;0.0001762;86.3915;104.1597;138.9903;221.1426;2.3729E-5;8.9E-7;0;Iridium
14.35871718;0.0001776;86.3915;104.1012;138.8577;221.2753;2.2807E-5;8.6E-7;0;Iridium
14.35871856;0.0001852;86.3915;103.7502;138.4289;221.7048;2.3339E-5;8.7E-7;0;Iridium
14.35871893;0.000187;86.3916;103.6625;138.224;221.9099;2.3076E-5;8.7E-7;0;Iridium
14.35871948;0.0001902;86.3916;103.5162;138.0012;222.1331;2.3508E-5;8.8E-7;0;Iridium
14.35871962;0.0001907;86.3916;103.487;137.9054;222.229;2.366E-5;8.8E-7;0;Iridium
14.35872154;0.0001988;86.3916;103.1068;137.1267;223.0085;2.6761E-5;9.7E-7;0;Iridium
14.3587227;0.0002037;86.3916;102.902;136.6925;223.4432;2.8517E-5;1.02E-6;0;Iridium
14.3587238;0.0002076;86.3917;102.6973;136.2958;223.8404;3.073E-5;1.09E-6;0;Iridium
14.35872482;0.0002119;86.3916;102.4926;135.781;224.3557;3.1997E-5;1.12E-6;0;Iridium
14.35872556;0.0002175;86.3916;102.2294;135.2561;224.8811;3.166E-5;1.12E-6;0;Iridium
14.35872634;0.0002205;86.3916;102.0831;134.841;225.2966;3.3238E-5;1.16E-6;0;Iridium
14.3587273;0.0002258;86.3916;101.8199;134.271;225.8672;3.3301E-5;1.16E-6;0;Iridium
14.35872814;0.0002296;86.3916;101.6444;133.8188;226.3199;3.4228E-5;1.19E-6;0;Iridium
14.35872998;0.0002378;86.3917;101.235;132.8563;227.2834;3.5378E-5;1.22E-6;0;Iridium
14.35873034;0.0002421;86.3917;101.0011;132.4018;227.7384;3.2268E-5;1.13E-6;0;Iridium
14.35873111;0.0002454;86.3917;100.8256;131.8413;228.2993;3.2576E-5;1.14E-6;0;Iridium
14.35873216;0.0002512;86.3918;100.5624;131.2003;228.9411;3.1725E-5;1.12E-6;0;Iridium
14.35873216;0.0002512;86.3918;100.5624;131.2003;228.9411;3.1725E-5;1.12E-6;0;Iridium
14.35873294;0.0002551;86.3918;100.3869;130.7102;229.4317;3.1289E-5;1.1E-6;0;Iridium
14.35873407;0.0002595;86.3919;100.1529;130.1083;230.0341;3.1001E-5;1.1E-6;0;Iridium
14.35873484;0.0002629;86.3919;99.9775;129.5835;230.5594;3.0502E-5;1.08E-6;0;Iridium
14.35873735;0.0002713;86.3921;99.539;128.3054;231.8387;3.0345E-5;1.08E-6;0;Iridium
14.35873842;0.0002752;86.3921;99.305;127.582;232.5627;2.9669E-5;1.06E-6;0;Iridium
14.35874028;0.0002826;86.3922;98.8956;126.3495;233.7963;2.8259E-5;1.02E-6;0;Iridium
14.35874094;0.0002858;86.3923;98.7202;125.7788;234.3674;2.7187E-5;9.9E-7;0;Iridium
14.35874127;0.0002904;86.3924;98.4863;125.1498;234.9971;2.4285E-5;9.0E-7;0;Iridium
14.35874177;0.000294;86.3924;98.2817;124.4054;235.742;2.2297E-5;8.4E-7;0;Iridium
14.35874232;0.0002975;86.3925;98.0478;123.6668;236.4812;2.1149E-5;8.1E-7;0;Iridium
14.35874232;0.0002975;86.3925;98.0478;123.6668;236.4812;2.1149E-5;8.1E-7;0;Iridium
14.35874279;0.0003009;86.3925;97.8723;123.1229;237.0257;2.0647E-5;8.0E-7;0;Iridium
14.35874324;0.0003051;86.3925;97.6384;122.4258;237.7234;1.97E-5;7.7E-7;0;Iridium
14.35874374;0.0003082;86.3926;97.463;121.8842;238.2655;1.9964E-5;7.8E-7;0;Iridium
14.35874449;0.0003118;86.3926;97.2291;121.1884;238.9619;2.0851E-5;8.0E-7;0;Iridium
14.35874449;0.0003118;86.3926;97.2291;121.1884;238.9619;2.0851E-5;8.0E-7;0;Iridium
14.35874557;0.0003151;86.3927;97.0244;120.5253;239.6255;2.3463E-5;8.8E-7;0;Iridium
14.35874634;0.0003178;86.3927;96.8198;119.9087;240.2426;2.5527E-5;9.4E-7;0;Iridium
14.35874719;0.0003212;86.3928;96.5858;119.088;241.0638;2.6367E-5;9.6E-7;0;Iridium
14.35874812;0.000324;86.3928;96.3812;118.444;241.7083;2.863E-5;1.03E-6;0;Iridium
14.35874882;0.0003267;86.3928;96.2058;117.8336;242.3192;2.9313E-5;1.05E-6;0;Iridium
14.35875044;0.0003307;86.3929;95.9427;117.0201;243.1334;3.2616E-5;1.14E-6;0;Iridium
14.35875044;0.0003307;86.3929;95.9427;117.0201;243.1334;3.2616E-5;1.14E-6;0;Iridium
14.35875131;0.0003331;86.393;95.7673;116.434;243.7198;3.311E-5;1.16E-6;0;Iridium
14.35875223;0.000337;86.393;95.5335;115.7326;244.4219;3.3919E-5;1.18E-6;0;Iridium
14.35875308;0.0003393;86.3931;95.3581;115.1458;245.0091;3.3918E-5;1.18E-6;0;Iridium
14.35875364;0.0003426;86.3931;95.1242;114.4239;245.7315;3.1967E-5;1.12E-6;0;Iridium
14.35875444;0.0003448;86.3932;94.9488;113.7652;246.3906;3.187E-5;1.12E-6;0;Iridium
14.35875511;0.0003476;86.3933;94.715;112.9957;247.1606;2.9984E-5;1.07E-6;0;Iridium
14.35875582;0.0003503;86.3933;94.5104;112.2902;247.8666;2.8498E-5;1.02E-6;0;Iridium
14.35875657;0.0003523;86.3934;94.3057;111.6;248.5572;2.7841E-5;1.0E-6;0;Iridium
14.35875708;0.0003546;86.3935;94.1011;110.9105;249.2472;2.5273E-5;9.3E-7;0;Iridium
14.35875781;0.0003567;86.3936;93.8965;110.2236;249.9345;2.4618E-5;9.1E-7;0;Iridium
14.35875848;0.0003588;86.3936;93.6919;109.4664;250.692;2.3284E-5;8.7E-7;0;Iridium
14.35875958;0.000361;86.3937;93.4581;108.6491;251.5098;2.4003E-5;8.9E-7;0;Iridium
14.35876011;0.0003634;86.3938;93.2535;107.9527;252.2066;2.2053E-5;8.4E-7;0;Iridium
14.35876118;0.0003652;86.3939;93.0489;107.2865;252.8731;2.3198E-5;8.7E-7;0;Iridium
14.35876233;0.0003683;86.3939;92.8443;106.7222;253.4379;2.4049E-5;9.0E-7;0;Iridium
14.35876344;0.0003696;86.3941;92.6396;106.0699;254.0905;2.5695E-5;9.4E-7;0;Iridium
14.35876344;0.0003696;86.3941;92.6396;106.0699;254.0905;2.5695E-5;9.4E-7;0;Iridium
14.35876446;0.0003717;86.3941;92.435;105.3357;254.8251;2.64E-5;9.6E-7;0;Iridium
14.35876545;0.0003738;86.3942;92.2012;104.5475;255.6137;2.6948E-5;9.8E-7;0;Iridium
14.35876545;0.0003738;86.3942;92.2012;104.5475;255.6137;2.6948E-5;9.8E-7;0;Iridium
14.35876623;0.0003756;86.3943;91.9966;103.8106;256.3508;2.6567E-5;9.7E-7;0;Iridium
14.35876741;0.0003778;86.3943;91.792;103.216;256.9459;2.8862E-5;1.03E-6;0;Iridium
14.35876812;0.00038;86.3944;91.5874;102.5896;257.5725;2.849E-5;1.02E-6;0;Iridium
14.35876901;0.000381;86.3945;91.3828;101.908;258.2544;2.9968E-5;1.07E-6;0;Iridium
14.35876959;0.0003828;86.3945;91.1783;101.1404;259.0223;2.924E-5;1.05E-6;0;Iridium
14.35877025;0.0003836;86.3946;90.9445;100.2565;259.9065;2.9384E-5;1.05E-6;0;Iridium
14.35877166;0.0003876;86.3947;90.5354;99.142;261.0215;2.9925E-5;1.07E-6;0;Iridium
14.35877382;0.0003903;86.3948;90.1263;97.7099;262.4541;3.2813E-5;1.15E-6;0;Iridium
14.3587747;0.0003913;86.3949;89.9218;96.9962;263.168;3.2818E-5;1.15E-6;0;Iridium
14.35877571;0.0003913;86.3949;89.7173;96.0533;264.111;3.4064E-5;1.19E-6;0;Iridium
14.35877731;0.0003927;86.395;89.4835;95.2677;264.8968;3.6232E-5;1.25E-6;0;Iridium
14.35877875;0.0003938;86.3951;89.2498;94.5057;265.6589;3.8312E-5;1.31E-6;0;Iridium
14.35877875;0.0003938;86.3951;89.2498;94.5057;265.6589;3.8312E-5;1.31E-6;0;Iridium
14.35877929;0.0003946;86.3952;89.0745;93.9039;266.2608;3.5168E-5;1.22E-6;0;Iridium
14.35878095;0.000395;86.3953;88.8408;93.0407;267.1242;3.6875E-5;1.27E-6;0;Iridium
14.35878182;0.000396;86.3954;88.6364;92.3727;267.7923;3.5066E-5;1.21E-6;0;Iridium
14.35878253;0.000396;86.3955;88.5195;91.9486;268.2165;3.6138E-5;1.25E-6;0;Iridium
